{
  "type": "FeatureCollection",
  "features": [
    {
      "type": "Feature",
      "properties": {
        "norad_id": 41773,
        "name": "SKYSAT-C2",
        "group": "resource",
        "lat": 31.9455348998675,
        "lon": 14.030635738958122,
        "alt_km": 449.68275466329123,
        "timestamp": "2025-12-20T05:41:49.675670+00:00",
        "meta_object_name": "SKYSAT-C2",
        "meta_object_id": "2016-058D",
        "meta_epoch": "2025-12-18T23:52:40.992960",
        "meta_mean_motion": 15.37407901,
        "meta_eccentricity": 0.00035522,
        "meta_inclination": 97.0351,
        "meta_ra_of_asc_node": 17.257,
        "meta_arg_of_pericenter": 17.3368,
        "meta_mean_anomaly": 342.7999,
        "meta_ephemeris_type": 0,
        "meta_classification_type": "U",
        "meta_norad_cat_id": 41773,
        "meta_element_set_no": 999,
        "meta_rev_at_epoch": 51732,
        "meta_bstar": 0.0002611674,
        "meta_mean_motion_dot": 9.504e-05,
        "meta_mean_motion_ddot": 0,
        "tle_line1": "1 41773U 16058D   25352.99491890  .00009504  00000+0  26117-3 0  9995",
        "tle_line2": "2 41773  97.0351  17.2570 0003552  17.3368 342.7999 15.37407901517322"
      },
      "geometry": {
        "type": "Point",
        "coordinates": [
          14.030635738958122,
          31.9455348998675
        ]
      }
    },
    {
      "type": "Feature",
      "properties": {
        "norad_id": 41774,
        "name": "SKYSAT-C3",
        "group": "resource",
        "lat": 53.53464405290772,
        "lon": 18.164017985580546,
        "alt_km": 426.6455706050392,
        "timestamp": "2025-12-20T05:41:49.675680+00:00",
        "meta_object_name": "SKYSAT-C3",
        "meta_object_id": "2016-058E",
        "meta_epoch": "2025-12-19T20:08:06.036864",
        "meta_mean_motion": 15.44638022,
        "meta_eccentricity": 0.00019194,
        "meta_inclination": 96.9286,
        "meta_ra_of_asc_node": 27.2551,
        "meta_arg_of_pericenter": 108.1196,
        "meta_mean_anomaly": 252.0263,
        "meta_ephemeris_type": 0,
        "meta_classification_type": "U",
        "meta_norad_cat_id": 41774,
        "meta_element_set_no": 999,
        "meta_rev_at_epoch": 51835,
        "meta_bstar": 0.00029927436,
        "meta_mean_motion_dot": 0.00013863,
        "meta_mean_motion_ddot": 0,
        "tle_line1": "1 41774U 16058E   25353.83895876  .00013863  00000+0  29927-3 0  9997",
        "tle_line2": "2 41774  96.9286  27.2551 0001919 108.1196 252.0263 15.44638022518350"
      },
      "geometry": {
        "type": "Point",
        "coordinates": [
          18.164017985580546,
          53.53464405290772
        ]
      }
    },
    {
      "type": "Feature",
      "properties": {
        "norad_id": 41785,
        "name": "ALSAT 1B",
        "group": "resource",
        "lat": 58.48440636854298,
        "lon": -161.4113215861798,
        "alt_km": 642.8275431527481,
        "timestamp": "2025-12-20T05:41:49.675691+00:00",
        "meta_object_name": "ALSAT 1B",
        "meta_object_id": "2016-059C",
        "meta_epoch": "2025-12-19T22:37:36.685344",
        "meta_mean_motion": 14.72083325,
        "meta_eccentricity": 0.00108092,
        "meta_inclination": 97.7808,
        "meta_ra_of_asc_node": 5.422,
        "meta_arg_of_pericenter": 83.1154,
        "meta_mean_anomaly": 277.1283,
        "meta_ephemeris_type": 0,
        "meta_classification_type": "U",
        "meta_norad_cat_id": 41785,
        "meta_element_set_no": 999,
        "meta_rev_at_epoch": 49420,
        "meta_bstar": 0.00010050382,
        "meta_mean_motion_dot": 5.85e-06,
        "meta_mean_motion_ddot": 0,
        "tle_line1": "1 41785U 16059C   25353.94278571  .00000585  00000+0  10050-3 0  9993",
        "tle_line2": "2 41785  97.7808   5.4220 0010809  83.1154 277.1283 14.72083325494203"
      },
      "geometry": {
        "type": "Point",
        "coordinates": [
          -161.4113215861798,
          58.48440636854298
        ]
      }
    },
    {
      "type": "Feature",
      "properties": {
        "norad_id": 41787,
        "name": "PATHFINDER 1",
        "group": "resource",
        "lat": 69.58010113078798,
        "lon": -24.980712774915883,
        "alt_km": 642.3233380085812,
        "timestamp": "2025-12-20T05:41:49.675701+00:00",
        "meta_object_name": "PATHFINDER 1",
        "meta_object_id": "2016-059E",
        "meta_epoch": "2025-12-19T22:49:46.699680",
        "meta_mean_motion": 14.67332832,
        "meta_eccentricity": 0.00298535,
        "meta_inclination": 97.8135,
        "meta_ra_of_asc_node": 356.3902,
        "meta_arg_of_pericenter": 59.2562,
        "meta_mean_anomaly": 301.1577,
        "meta_ephemeris_type": 0,
        "meta_classification_type": "U",
        "meta_norad_cat_id": 41787,
        "meta_element_set_no": 999,
        "meta_rev_at_epoch": 49342,
        "meta_bstar": 0.00010419889,
        "meta_mean_motion_dot": 5.46e-06,
        "meta_mean_motion_ddot": 0,
        "tle_line1": "1 41787U 16059E   25353.95123495  .00000546  00000+0  10420-3 0  9998",
        "tle_line2": "2 41787  97.8135 356.3902 0029853  59.2562 301.1577 14.67332832493421"
      },
      "geometry": {
        "type": "Point",
        "coordinates": [
          -24.980712774915883,
          69.58010113078798
        ]
      }
    },
    {
      "type": "Feature",
      "properties": {
        "norad_id": 41790,
        "name": "SCATSAT 1",
        "group": "resource",
        "lat": 16.15432116500087,
        "lon": 48.62325055736369,
        "alt_km": 631.6228587275118,
        "timestamp": "2025-12-20T05:41:49.675711+00:00",
        "meta_object_name": "SCATSAT 1",
        "meta_object_id": "2016-059H",
        "meta_epoch": "2025-12-19T21:30:16.990272",
        "meta_mean_motion": 14.78958182,
        "meta_eccentricity": 0.00564485,
        "meta_inclination": 98.1454,
        "meta_ra_of_asc_node": 50.6554,
        "meta_arg_of_pericenter": 105.4279,
        "meta_mean_anomaly": 255.3177,
        "meta_ephemeris_type": 0,
        "meta_classification_type": "U",
        "meta_norad_cat_id": 41790,
        "meta_element_set_no": 999,
        "meta_rev_at_epoch": 7508,
        "meta_bstar": 0.00014230332,
        "meta_mean_motion_dot": 1.022e-05,
        "meta_mean_motion_ddot": 0,
        "tle_line1": "1 41790U 16059H   25353.89602998  .00001022  00000+0  14230-3 0  9998",
        "tle_line2": "2 41790  98.1454  50.6554 0056448 105.4279 255.3177 14.78958182 75087"
      },
      "geometry": {
        "type": "Point",
        "coordinates": [
          48.62325055736369,
          16.15432116500087
        ]
      }
    },
    {
      "type": "Feature",
      "properties": {
        "norad_id": 41875,
        "name": "GOKTURK 1A",
        "group": "resource",
        "lat": 25.558677791147822,
        "lon": -117.42429932083074,
        "alt_km": 682.8491957436572,
        "timestamp": "2025-12-20T05:41:49.675721+00:00",
        "meta_object_name": "GOKTURK 1A",
        "meta_object_id": "2016-073A",
        "meta_epoch": "2025-12-19T23:00:45.611136",
        "meta_mean_motion": 14.6278783,
        "meta_eccentricity": 0.00012633,
        "meta_inclination": 98.1436,
        "meta_ra_of_asc_node": 246.2276,
        "meta_arg_of_pericenter": 81.1523,
        "meta_mean_anomaly": 278.9822,
        "meta_ephemeris_type": 0,
        "meta_classification_type": "U",
        "meta_norad_cat_id": 41875,
        "meta_element_set_no": 999,
        "meta_rev_at_epoch": 48262,
        "meta_bstar": 9.9372812e-05,
        "meta_mean_motion_dot": 4.6e-06,
        "meta_mean_motion_ddot": 0,
        "tle_line1": "1 41875U 16073A   25353.95886124  .00000460  00000+0  99373-4 0  9997",
        "tle_line2": "2 41875  98.1436 246.2276 0001263  81.1523 278.9822 14.62787830482625"
      },
      "geometry": {
        "type": "Point",
        "coordinates": [
          -117.42429932083074,
          25.558677791147822
        ]
      }
    },
    {
      "type": "Feature",
      "properties": {
        "norad_id": 41877,
        "name": "RESOURCESAT-2A",
        "group": "resource",
        "lat": 44.40642762573754,
        "lon": 55.34737491846701,
        "alt_km": 817.1201272465578,
        "timestamp": "2025-12-20T05:41:49.675732+00:00",
        "meta_object_name": "RESOURCESAT-2A",
        "meta_object_id": "2016-074A",
        "meta_epoch": "2025-12-19T22:43:44.446944",
        "meta_mean_motion": 14.21602224,
        "meta_eccentricity": 0.00013912,
        "meta_inclination": 98.7756,
        "meta_ra_of_asc_node": 63.7612,
        "meta_arg_of_pericenter": 220.3327,
        "meta_mean_anomaly": 139.7747,
        "meta_ephemeris_type": 0,
        "meta_classification_type": "U",
        "meta_norad_cat_id": 41877,
        "meta_element_set_no": 999,
        "meta_rev_at_epoch": 46883,
        "meta_bstar": 1.7955112e-05,
        "meta_mean_motion_dot": -5e-08,
        "meta_mean_motion_ddot": 0,
        "tle_line1": "1 41877U 16074A   25353.94704221 -.00000005  00000+0  17955-4 0  9998",
        "tle_line2": "2 41877  98.7756  63.7612 0001391 220.3327 139.7747 14.21602224468830"
      },
      "geometry": {
        "type": "Point",
        "coordinates": [
          55.34737491846701,
          44.40642762573754
        ]
      }
    }
  ]
}